{
  "type": "FeatureCollection",
  "features": [
    {
      "type": "Feature",
      "properties": {
        "norad_id": 31533,
        "name": "FENGYUN 1C DEB",
        "group": "fengyun-1c-debris",
        "lat": -27.327300099122827,
        "lon": -127.06080999660213,
        "alt_km": 772.8839057978112,
        "timestamp": "2025-12-02T08:59:32.997105+00:00",
        "meta_object_name": "FENGYUN 1C DEB",
        "meta_object_id": "1999-025BXY",
        "meta_epoch": "2025-12-01T12:56:07.584288",
        "meta_mean_motion": 14.27589591,
        "meta_eccentricity": 0.00661002,
        "meta_inclination": 98.9605,
        "meta_ra_of_asc_node": 227.4061,
        "meta_arg_of_pericenter": 21.6928,
        "meta_mean_anomaly": 338.7028,
        "meta_ephemeris_type": 0,
        "meta_classification_type": "U",
        "meta_norad_cat_id": 31533,
        "meta_element_set_no": 999,
        "meta_rev_at_epoch": 65963,
        "meta_bstar": 0.00043989526,
        "meta_mean_motion_dot": 1.062e-05,
        "meta_mean_motion_ddot": 0,
        "tle_line1": "1 31533U 99025BXY 25335.53897667  .00001062  00000+0  43990-3 0  9995",
        "tle_line2": "2 31533  98.9605 227.4061 0066100  21.6928 338.7028 14.27589591659638"
      },
      "geometry": {
        "type": "Point",
        "coordinates": [
          -127.06080999660213,
          -27.327300099122827
        ]
      }
    },
    {
      "type": "Feature",
      "properties": {
        "norad_id": 31536,
        "name": "FENGYUN 1C DEB",
        "group": "fengyun-1c-debris",
        "lat": -67.90078063056085,
        "lon": 42.99956794245055,
        "alt_km": 651.5279816575612,
        "timestamp": "2025-12-02T08:59:32.997116+00:00",
        "meta_object_name": "FENGYUN 1C DEB",
        "meta_object_id": "1999-025BYB",
        "meta_epoch": "2025-12-01T12:02:45.592512",
        "meta_mean_motion": 14.5408543,
        "meta_eccentricity": 0.02944537,
        "meta_inclination": 98.2352,
        "meta_ra_of_asc_node": 243.0356,
        "meta_arg_of_pericenter": 179.4809,
        "meta_mean_anomaly": 180.6752,
        "meta_ephemeris_type": 0,
        "meta_classification_type": "U",
        "meta_norad_cat_id": 31536,
        "meta_element_set_no": 999,
        "meta_rev_at_epoch": 96094,
        "meta_bstar": 0.00095686103,
        "meta_mean_motion_dot": 7.179e-05,
        "meta_mean_motion_ddot": 0,
        "tle_line1": "1 31536U 99025BYB 25335.50191658  .00007179  00000+0  95686-3 0  9996",
        "tle_line2": "2 31536  98.2352 243.0356 0294453 179.4809 180.6752 14.54085430960948"
      },
      "geometry": {
        "type": "Point",
        "coordinates": [
          42.99956794245055,
          -67.90078063056085
        ]
      }
    },
    {
      "type": "Feature",
      "properties": {
        "norad_id": 31537,
        "name": "FENGYUN 1C DEB",
        "group": "fengyun-1c-debris",
        "lat": 80.37783051688994,
        "lon": 54.0130223847919,
        "alt_km": 824.6685691166304,
        "timestamp": "2025-12-02T08:59:32.997126+00:00",
        "meta_object_name": "FENGYUN 1C DEB",
        "meta_object_id": "1999-025BYC",
        "meta_epoch": "2025-12-01T15:41:22.536384",
        "meta_mean_motion": 14.20074958,
        "meta_eccentricity": 0.0349482,
        "meta_inclination": 99.2927,
        "meta_ra_of_asc_node": 128.2172,
        "meta_arg_of_pericenter": 355.9583,
        "meta_mean_anomaly": 3.8786,
        "meta_ephemeris_type": 0,
        "meta_classification_type": "U",
        "meta_norad_cat_id": 31537,
        "meta_element_set_no": 999,
        "meta_rev_at_epoch": 93124,
        "meta_bstar": 0.0016094,
        "meta_mean_motion_dot": 6.299e-05,
        "meta_mean_motion_ddot": 0,
        "tle_line1": "1 31537U 99025BYC 25335.65373306  .00006299  00000+0  16094-2 0  9992",
        "tle_line2": "2 31537  99.2927 128.2172 0349482 355.9583   3.8786 14.20074958931241"
      },
      "geometry": {
        "type": "Point",
        "coordinates": [
          54.0130223847919,
          80.37783051688994
        ]
      }
    },
    {
      "type": "Feature",
      "properties": {
        "norad_id": 31538,
        "name": "FENGYUN 1C DEB",
        "group": "fengyun-1c-debris",
        "lat": -56.73966061618845,
        "lon": 11.694440855415058,
        "alt_km": 574.514710756639,
        "timestamp": "2025-12-02T08:59:32.997136+00:00",
        "meta_object_name": "FENGYUN 1C DEB",
        "meta_object_id": "1999-025BYD",
        "meta_epoch": "2025-11-18T21:37:36.814656",
        "meta_mean_motion": 14.96885168,
        "meta_eccentricity": 0.00235351,
        "meta_inclination": 98.2479,
        "meta_ra_of_asc_node": 190.2519,
        "meta_arg_of_pericenter": 356.6213,
        "meta_mean_anomaly": 3.4844,
        "meta_ephemeris_type": 0,
        "meta_classification_type": "U",
        "meta_norad_cat_id": 31538,
        "meta_element_set_no": 999,
        "meta_rev_at_epoch": 66646,
        "meta_bstar": 0.0047226763,
        "meta_mean_motion_dot": 0.00054817,
        "meta_mean_motion_ddot": 0,
        "tle_line1": "1 31538U 99025BYD 25322.90112054  .00054817  00000+0  47227-2 0  9999",
        "tle_line2": "2 31538  98.2479 190.2519 0023535 356.6213   3.4844 14.96885168666469"
      },
      "geometry": {
        "type": "Point",
        "coordinates": [
          11.694440855415058,
          -56.73966061618845
        ]
      }
    },
    {
      "type": "Feature",
      "properties": {
        "norad_id": 31540,
        "name": "FENGYUN 1C DEB",
        "group": "fengyun-1c-debris",
        "lat": -9.47997575968516,
        "lon": -46.78014130779236,
        "alt_km": 780.3891499483352,
        "timestamp": "2025-12-02T08:59:32.997146+00:00",
        "meta_object_name": "FENGYUN 1C DEB",
        "meta_object_id": "1999-025BYF",
        "meta_epoch": "2025-11-30T16:47:12.586272",
        "meta_mean_motion": 14.65204922,
        "meta_eccentricity": 0.01774904,
        "meta_inclination": 99.0563,
        "meta_ra_of_asc_node": 132.9014,
        "meta_arg_of_pericenter": 338.1522,
        "meta_mean_anomaly": 21.2175,
        "meta_ephemeris_type": 0,
        "meta_classification_type": "U",
        "meta_norad_cat_id": 31540,
        "meta_element_set_no": 999,
        "meta_rev_at_epoch": 98125,
        "meta_bstar": 0.00061965123,
        "meta_mean_motion_dot": 4.14e-05,
        "meta_mean_motion_ddot": 0,
        "tle_line1": "1 31540U 99025BYF 25334.69945123  .00004140  00000+0  61965-3 0  9992",
        "tle_line2": "2 31540  99.0563 132.9014 0177490 338.1522  21.2175 14.65204922981257"
      },
      "geometry": {
        "type": "Point",
        "coordinates": [
          -46.78014130779236,
          -9.47997575968516
        ]
      }
    },
    {
      "type": "Feature",
      "properties": {
        "norad_id": 31541,
        "name": "FENGYUN 1C DEB",
        "group": "fengyun-1c-debris",
        "lat": -11.420446502645861,
        "lon": 119.59350048270471,
        "alt_km": 656.4406962337234,
        "timestamp": "2025-12-02T08:59:32.997156+00:00",
        "meta_object_name": "FENGYUN 1C DEB",
        "meta_object_id": "1999-025BYG",
        "meta_epoch": "2025-12-01T08:30:59.377824",
        "meta_mean_motion": 14.68534389,
        "meta_eccentricity": 0.00787181,
        "meta_inclination": 98.9786,
        "meta_ra_of_asc_node": 116.6445,
        "meta_arg_of_pericenter": 275.4502,
        "meta_mean_anomaly": 83.7725,
        "meta_ephemeris_type": 0,
        "meta_classification_type": "U",
        "meta_norad_cat_id": 31541,
        "meta_element_set_no": 999,
        "meta_rev_at_epoch": 98256,
        "meta_bstar": 0.0014195856,
        "meta_mean_motion_dot": 8.577e-05,
        "meta_mean_motion_ddot": 0,
        "tle_line1": "1 31541U 99025BYG 25335.35485391  .00008577  00000+0  14196-2 0  9994",
        "tle_line2": "2 31541  98.9786 116.6445 0078718 275.4502  83.7725 14.68534389982569"
      },
      "geometry": {
        "type": "Point",
        "coordinates": [
          119.59350048270471,
          -11.420446502645861
        ]
      }
    },
    {
      "type": "Feature",
      "properties": {
        "norad_id": 31542,
        "name": "FENGYUN 1C DEB",
        "group": "fengyun-1c-debris",
        "lat": 45.948108509451785,
        "lon": -140.38548224317125,
        "alt_km": 819.8572919055432,
        "timestamp": "2025-12-02T08:59:32.997166+00:00",
        "meta_object_name": "FENGYUN 1C DEB",
        "meta_object_id": "1999-025BYH",
        "meta_epoch": "2025-11-30T14:09:57.790944",
        "meta_mean_motion": 14.22685015,
        "meta_eccentricity": 0.00468903,
        "meta_inclination": 98.7331,
        "meta_ra_of_asc_node": 28.7039,
        "meta_arg_of_pericenter": 241.7898,
        "meta_mean_anomaly": 117.854,
        "meta_ephemeris_type": 0,
        "meta_classification_type": "U",
        "meta_norad_cat_id": 31542,
        "meta_element_set_no": 999,
        "meta_rev_at_epoch": 95767,
        "meta_bstar": 0.0013210512,
        "meta_mean_motion_dot": 2.947e-05,
        "meta_mean_motion_ddot": 0,
        "tle_line1": "1 31542U 99025BYH 25334.59025221  .00002947  00000+0  13211-2 0  9994",
        "tle_line2": "2 31542  98.7331  28.7039 0046890 241.7898 117.8540 14.22685015957677"
      },
      "geometry": {
        "type": "Point",
        "coordinates": [
          -140.38548224317125,
          45.948108509451785
        ]
      }
    }
  ]
}